H1 CPF 01  gfz 2021 05 14 00  6341 tandemx   
H2 1003001  6202 36605    2021 05 14 00 59 42 2021 05 19 00 00 42   120 1 1  0 0 0
H9
10 0 59349  66222.000000  0    -754900.495    965821.239  -6785547.001
10 0 59349  66342.000000  0     157991.361    882696.092  -6836868.865
10 0 59349  66462.000000  0    1066422.482    768353.547  -6768984.860
10 0 59349  66582.000000  0    1954135.247    624991.433  -6583061.438
10 0 59349  66702.000000  0    2805263.443    455588.893  -6282296.709
10 0 59349  66822.000000  0    3604611.090    263848.487  -5871871.232
10 0 59349  66942.000000  0    4337920.785     54120.508  -5358867.074
10 0 59349  67062.000000  0    4992128.419   -168688.228  -4752157.416
10 0 59349  67182.000000  0    5555602.142   -399220.059  -4062264.807
10 0 59349  67302.000000  0    6018357.593   -631785.158  -3301188.089
10 0 59349  67422.000000  0    6372245.779   -860490.843  -2482201.730
10 0 59349  67542.000000  0    6611109.599  -1079379.016  -1619628.728
10 0 59349  67662.000000  0    6730903.503  -1282567.754   -728590.163
10 0 59349  67782.000000  0    6729772.457  -1464394.098    175262.965
10 0 59349  67902.000000  0    6608088.638  -1619554.474   1076030.865
10 0 59349  68022.000000  0    6368442.399  -1743239.111   1957853.203
10 0 59349  68142.000000  0    6015589.125  -1831257.024   2805197.515
10 0 59349  68262.000000  0    5556351.423  -1880147.011   3603141.761
10 0 59349  68382.000000  0    4999480.074  -1887273.468   4337642.997
10 0 59349  68502.000000  0    4355478.536  -1850903.678   4995787.258
10 0 59349  68622.000000  0    3636396.636  -1770264.623   5566017.211
10 0 59349  68742.000000  0    2855595.816  -1645579.430   6038333.978
10 0 59349  68862.000000  0    2027492.762  -1478081.871   6404467.039
10 0 59349  68982.000000  0    1167288.261  -1270009.638   6658013.446
10 0 59349  69102.000000  0     290684.386  -1024575.583   6794544.259
10 0 59349  69222.000000  0    -586403.504   -745917.446   6811676.295
10 0 59349  69342.000000  0   -1448134.752   -439027.911   6709110.129
10 0 59349  69462.000000  0   -2279028.102   -109665.391   6488634.920
10 0 59349  69582.000000  0   -3064238.735    235753.312   6154099.691
10 0 59349  69702.000000  0   -3789824.484    590276.609   5711351.306
10 0 59349  69822.000000  0   -4442997.342    946555.762   5168138.404
10 0 59349  69942.000000  0   -5012354.875   1296994.781   4533981.713
10 0 59349  70062.000000  0   -5488087.443   1633910.062   3820011.912
10 0 59349  70182.000000  0   -5862155.491   1949695.779   3038776.833
10 0 59349  70302.000000  0   -6128434.006   2236991.746   2204021.922
10 0 59349  70422.000000  0   -6282821.204   2488849.922   1330446.605
10 0 59349  70542.000000  0   -6323307.629   2698895.744    433439.584
10 0 59349  70662.000000  0   -6250002.052   2861479.174   -471200.368
10 0 59349  70782.000000  0   -6065114.938   2971811.824  -1367551.562
10 0 59349  70902.000000  0   -5772899.382   3026086.720  -2239858.382
10 0 59349  71022.000000  0   -5379550.769   3021578.079  -3072816.712
10 0 59349  71142.000000  0   -4893067.821   2956717.341  -3851847.246
10 0 59349  71262.000000  0   -4323080.457   2831145.147  -4563351.638
10 0 59349  71382.000000  0   -3680649.182   2645737.868  -5194946.490
10 0 59349  71502.000000  0   -2978041.750   2402608.879  -5735670.974
10 0 59349  71622.000000  0   -2228494.042   2105085.954  -6176167.105
10 0 59349  71742.000000  0   -1445957.008   1757664.353  -6508831.541
10 0 59349  71862.000000  0    -644836.844   1365936.901  -6727934.117
10 0 59349  71982.000000  0     160266.318    936503.332  -6829706.197
10 0 59349  72102.000000  0     954817.600    476860.649  -6812398.157
10 0 59349  72222.000000  0    1724604.091     -4724.976  -6676308.215
10 0 59349  72342.000000  0    2455983.656   -499363.568  -6423776.659
10 0 59349  72462.000000  0    3136121.554   -997700.791  -6059150.452
10 0 59349  72582.000000  0    3753213.359  -1490089.917  -5588715.585
10 0 59349  72702.000000  0    4296690.023  -1966773.822  -5020600.135
10 0 59349  72822.000000  0    4757403.597  -2418076.322  -4364645.360
10 0 59349  72942.000000  0    5127787.563  -2834597.119  -3632245.685
10 0 59349  73062.000000  0    5401989.854  -3207406.839  -2836160.012
10 0 59349  73182.000000  0    5575975.392  -3528238.158  -1990294.994
10 0 59349  73302.000000  0    5647593.649  -3789668.171  -1109463.945
10 0 59349  73422.000000  0    5616609.999  -3985288.221   -209125.987
10 0 59349  73542.000000  0    5484699.026  -4109855.759    694890.313
10 0 59349  73662.000000  0    5255398.959  -4159425.134   1586673.096
10 0 59349  73782.000000  0    4934027.508  -4131452.093   2450516.983
10 0 59349  73902.000000  0    4527561.584  -4024868.372   3271208.076
10 0 59349  74022.000000  0    4044485.455  -3840126.765   4034298.296
10 0 59349  74142.000000  0    3494610.643  -3579215.767   4726364.978
10 0 59349  74262.000000  0    2888870.256  -3245641.794   5335249.219
10 0 59349  74382.000000  0    2239096.435  -2844380.398   5850268.002
10 0 59349  74502.000000  0    1557783.940  -2381798.321   6262398.359
10 0 59349  74622.000000  0     857845.874  -1865548.704   6564429.373
10 0 59349  74742.000000  0     152366.782  -1304441.379   6751082.359
10 0 59349  74862.000000  0    -545642.379   -708290.313   6819097.587
10 0 59349  74982.000000  0   -1223483.316    -87740.889   6767287.039
10 0 59349  75102.000000  0   -1869000.454    545919.858   6596553.875
10 0 59349  75222.000000  0   -2470798.280   1180967.960   6309877.745
10 0 59349  75342.000000  0   -3018442.951   1805458.477   5912266.160
10 0 59349  75462.000000  0   -3502645.028   2407449.742   5410672.906
10 0 59349  75582.000000  0   -3915421.280   2975233.073   4813883.032
10 0 59349  75702.000000  0   -4250231.289   3497562.835   4132364.199
10 0 59349  75822.000000  0   -4502086.945   3963882.421   3378087.443
10 0 59349  75942.000000  0   -4667631.674   4364541.539   2564318.481
10 0 59349  76062.000000  0   -4745186.354   4691000.482   1705383.298
10 0 59349  76182.000000  0   -4734761.206   4936014.925    816411.248
10 0 59349  76302.000000  0   -4638033.876   5093795.471    -86937.932
10 0 59349  76422.000000  0   -4458294.632   5160140.489   -988757.912
10 0 59349  76542.000000  0   -4200357.032   5132537.163  -1873187.181
10 0 59349  76662.000000  0   -3870436.396   5010226.181  -2724695.839
10 0 59349  76782.000000  0   -3476003.474   4794231.894  -3528365.013
10 0 59349  76902.000000  0   -3025613.558   4487354.537  -4270150.755
10 0 59349  77022.000000  0   -2528718.397   4094127.880  -4937126.813
10 0 59349  77142.000000  0   -1995465.974   3620745.089  -5517703.013
10 0 59349  77262.000000  0   -1436492.664   3074954.513  -6001818.745
10 0 59349  77382.000000  0    -862710.892   2465925.771  -6381107.634
10 0 59349  77502.000000  0    -285097.532   1804090.767  -6649030.163
10 0 59349  77622.000000  0     285512.262   1100963.877  -6800975.166
10 0 59349  77742.000000  0     838622.974    368943.573  -6834331.142
10 0 59349  77862.000000  0    1364267.834   -378902.153  -6748526.935
10 0 59349  77982.000000  0    1853183.938  -1129064.285  -6545038.893
10 0 59349  78102.000000  0    2296971.307  -1867830.108  -6227367.977
10 0 59349  78222.000000  0    2688235.464  -2581527.430  -5800986.304
10 0 59349  78342.000000  0    3020710.967  -3256773.710  -5273254.466
10 0 59349  78462.000000  0    3289364.923  -3880727.970  -4653305.219
10 0 59349  78582.000000  0    3490475.224  -4441335.918  -3951894.426
10 0 59349  78702.000000  0    3621684.206  -4927565.674  -3181225.325
10 0 59349  78822.000000  0    3682027.818  -5329631.913  -2354745.000
10 0 59349  78942.000000  0    3671936.261  -5639201.385  -1486912.829
10 0 59349  79062.000000  0    3593206.597  -5849572.464   -592947.295
10 0 59349  79182.000000  0    3448947.104  -5955825.903    311445.416
10 0 59349  79302.000000  0    3243493.477  -5954940.623   1210353.964
10 0 59349  79422.000000  0    2982301.072  -5845873.055   2087950.559
10 0 59349  79542.000000  0    2671813.165  -5629594.470   2928779.781
10 0 59349  79662.000000  0    2319309.493  -5309087.683   3718037.760
10 0 59349  79782.000000  0    1932740.493  -4889304.394   4441837.778
10 0 59349  79902.000000  0    1520550.536  -4377083.081   5087457.891
10 0 59349  80022.000000  0    1091495.480  -3781030.151   5643564.962
10 0 59349  80142.000000  0     654456.549  -3111366.246   6100412.088
10 0 59349  80262.000000  0     218256.550  -2379742.669   6450003.060
10 0 59349  80382.000000  0    -208517.009  -1599033.476   6686225.302
10 0 59349  80502.000000  0    -617679.341   -783106.721   6804951.131
10 0 59349  80622.000000  0   -1001604.157     53423.528   6804106.608
10 0 59349  80742.000000  0   -1353365.095    895459.405   6683705.369
10 0 59349  80862.000000  0   -1666860.267   1727691.203   6445848.065
10 0 59349  80982.000000  0   -1936918.399   2534874.919   6094688.143
10 0 59349  81102.000000  0   -2159384.887   3302111.867   5636363.626
10 0 59349  81222.000000  0   -2331186.101   4015125.383   5078895.719
10 0 59349  81342.000000  0   -2450372.053   4660531.156   4432055.432
10 0 59349  81462.000000  0   -2516135.489   5226095.540   3707197.249
10 0 59349  81582.000000  0   -2528806.961   5700975.901   2917062.230
10 0 59349  81702.000000  0   -2489825.413   6075936.563   2075553.587
10 0 59349  81822.000000  0   -2401685.448   6343536.265   1197489.443
10 0 59349  81942.000000  0   -2267861.664   6498282.074    298336.491
10 0 59349  82062.000000  0   -2092712.311   6536745.643   -606069.863
10 0 59349  82182.000000  0   -1881364.929   6457639.167  -1499813.740
10 0 59349  82302.000000  0   -1639585.419   6261846.264  -2367190.889
10 0 59349  82422.000000  0   -1373634.422   5952404.952  -3192991.488
10 0 59349  82542.000000  0   -1090116.848   5534450.970  -3962768.471
10 0 59349  82662.000000  0    -795827.960   5015121.384  -4663090.290
99
